NORAD_CAT_ID,OBJECT_NAME,OBJECT_TYPE,EPOCH,MEAN_MOTION,ECCENTRICITY,INCLINATION,RA_OF_ASC_NODE,ARG_OF_PERICENTER,MEAN_ANOMALY,BSTAR,MEAN_MOTION_DOT,MEAN_MOTION_DDOT,TLE_LINE0,TLE_LINE1,TLE_LINE2,SEMIMAJOR_AXIS,PERIOD,APOGEE,PERIGEE,DECAYED
49456.0,STARLINK-3124,PAYLOAD,2023-09-11 12:50:01,15.08843794,0.0001373,53.2192,345.0142,97.1746,262.9402,5.312e-05,5.58e-06,0.0,0 STARLINK-3124,1 49456U 21104BA  23254.53474226  .00000558  00000-0  53120-4 0  9998,2 49456  53.2192 345.0142 0001373  97.1746 262.9402 15.08843794101375,6917.869,95.437,540.684,538.784,0.0
49456.0,STARLINK-3124,PAYLOAD,2023-09-12 11:05:25,15.08848551,0.0001464,53.2189,340.8517,98.6082,261.5076,0.00010166,1.331e-05,0.0,0 STARLINK-3124,1 49456U 21104BA  23255.46209752  .00001331  00000-0  10166-3 0  9993,2 49456  53.2189 340.8517 0001464  98.6082 261.5076 15.08848551102582,6917.854,95.437,540.732,538.706,0.0
49456.0,STARLINK-3124,PAYLOAD,2023-09-12 12:40:48,15.08851254,0.0001407,53.2187,340.5546,97.4195,262.6957,8.5502e-05,1.073e-05,0.0,0 STARLINK-3124,1 49456U 21104BA  23255.52833564  .00001073  00000-0  85502-4 0  9994,2 49456  53.2187 340.5546 0001407  97.4195 262.6957 15.08851254101525,6917.846,95.437,540.684,538.738,0.0
49456.0,STARLINK-3124,PAYLOAD,2023-09-13 10:56:12,15.08848885,0.0001437,53.2183,336.3915,97.0896,263.026,0.00014755,2.062e-05,0.0,0 STARLINK-3124,1 49456U 21104BA  23256.45569568  .00002062  00000-0  14755-3 0  9997,2 49456  53.2183 336.3915 0001437  97.0896 263.0260 15.08848885101664,6917.853,95.437,540.712,538.724,0.0
49456.0,STARLINK-3124,PAYLOAD,2023-09-13 17:17:43,15.08861506,0.0001411,53.2183,335.2005,102.3074,257.8076,0.00029317,4.384e-05,0.0,0 STARLINK-3124,1 49456U 21104BA  23256.72064693  .00004384  00000-0  29317-3 0  9995,2 49456  53.2183 335.2005 0001411 102.3074 257.8076 15.08861506102776,6917.815,95.436,540.656,538.704,0.0
49456.0,STARLINK-3124,PAYLOAD,2023-09-13 22:03:55,15.08819823,0.0001866,53.2186,334.3105,83.0042,277.1163,-0.00031361,-5.273e-05,0.0,0 STARLINK-3124,1 49456U 21104BA  23256.91938976 -.00005273  00000-0 -31361-3 0  9992,2 49456  53.2186 334.3105 0001866  83.0042 277.1163 15.08819823102805,6917.942,95.439,541.098,538.516,0.0
49456.0,STARLINK-3124,PAYLOAD,2023-09-14 12:22:24,15.08813934,0.0001529,53.2185,331.6353,80.6958,279.4207,-0.00033075,-5.544e-05,0.0,0 STARLINK-3124,1 49456U 21104BA  23257.51555990 -.00005544  00000-0 -33075-3 0  9995,2 49456  53.2185 331.6353 0001529  80.6958 279.4207 15.08813934101826,6917.96,95.439,540.883,538.767,0.0
49456.0,STARLINK-3124,PAYLOAD,2023-09-15 10:37:48,15.08829128,0.0001471,53.2177,327.4714,90.3432,269.7729,9.7122e-05,1.258e-05,0.0,0 STARLINK-3124,1 49456U 21104BA  23258.44292261  .00001258  00000-0  97122-4 0  9997,2 49456  53.2177 327.4714 0001471  90.3432 269.7729 15.08829128103030,6917.914,95.438,540.796,538.761,0.0
49456.0,STARLINK-3124,PAYLOAD,2023-09-15 12:13:11,15.08832443,0.0001406,53.217,327.1744,73.2459,286.8687,0.00025528,3.776e-05,0.0,0 STARLINK-3124,1 49456U 21104BA  23258.50916375  .00003776  00000-0  25528-3 0  9990,2 49456  53.2170 327.1744 0001406  73.2459 286.8687 15.08832443101978,6917.903,95.438,540.741,538.796,0.0
49456.0,STARLINK-3124,PAYLOAD,2023-09-15 21:45:30,15.08842134,0.0001441,53.2169,325.3904,74.2485,285.8666,0.00074923,0.00011657,0.0,0 STARLINK-3124,1 49456U 21104BA  23258.90660659  .00011657  00000-0  74923-3 0  9995,2 49456  53.2169 325.3904 0001441  74.2485 285.8666 15.08842134103104,6917.874,95.437,540.736,538.742,0.0
49456.0,STARLINK-3124,PAYLOAD,2023-09-16 08:53:12,15.08865332,0.0001431,53.2162,323.3085,71.0765,289.0382,0.00098793,0.00015481,0.0,0 STARLINK-3124,1 49456U 21104BA  23259.37028002  .00015481  00000-0  98793-3 0  9997,2 49456  53.2162 323.3085 0001431  71.0765 289.0382 15.08865332103173,6917.803,95.436,540.658,538.678,0.0
49456.0,STARLINK-3124,PAYLOAD,2023-09-16 13:39:21,15.08873841,0.0001411,53.2157,322.4162,70.2095,289.9049,0.001013,0.00015886,0.0,0 STARLINK-3124,1 49456U 21104BA  23259.56899530  .00015886  00000-0  10130-2 0  9997,2 49456  53.2157 322.4162 0001411  70.2095 289.9049 15.08873841102136,6917.777,95.435,540.618,538.666,0.0
49456.0,STARLINK-3124,PAYLOAD,2023-09-16 21:36:16,15.08865491,0.0001237,53.2161,320.9289,82.788,277.3253,0.00070742,0.00010996,0.0,0 STARLINK-3124,1 49456U 21104BA  23259.90019320  .00010996  00000-0  70742-3 0  9999,2 49456  53.2161 320.9289 0001237  82.7880 277.3253 15.08865491103254,6917.802,95.436,540.523,538.812,0.0
49456.0,STARLINK-3124,PAYLOAD,2023-09-17 10:19:21,15.08855012,0.0001451,53.2156,318.5495,86.3145,273.8013,0.00025508,3.776e-05,0.0,0 STARLINK-3124,1 49456U 21104BA  23260.43011064  .00003776  00000-0  25508-3 0  9994,2 49456  53.2156 318.5495 0001451  86.3145 273.8013 15.08855012102265,6917.835,95.437,540.703,538.696,0.0
49456.0,STARLINK-3124,PAYLOAD,2023-09-18 10:10:08,15.08849667,0.0001639,53.2167,314.0906,76.4171,283.7004,-5.3828e-05,-1.145e-05,0.0,0 STARLINK-3124,1 49456U 21104BA  23261.42371005 -.00001145  00000-0 -53828-4 0  9995,2 49456  53.2167 314.0906 0001639  76.4171 283.7004 15.08849667103486,6917.851,95.437,540.85,538.582,0.0
49456.0,STARLINK-3124,PAYLOAD,2023-09-19 10:00:54,15.08855231,0.0001434,53.217,309.6291,94.3623,265.7533,0.00014768,2.064e-05,0.0,0 STARLINK-3124,1 49456U 21104BA  23262.41729807  .00002064  00000-0  14768-3 0  9990,2 49456  53.2170 309.6291 0001434  94.3623 265.7533 15.08855231103639,6917.834,95.437,540.691,538.707,0.0
49456.0,STARLINK-3124,PAYLOAD,2023-09-20 03:30:10,15.08830318,0.000146,53.216,306.3581,96.7086,263.4072,-0.00016341,-2.887e-05,0.0,0 STARLINK-3124,1 49456U 21104BA  23263.14595302 -.00002887  00000-0 -16341-3 0  9996,2 49456  53.2160 306.3581 0001460  96.7086 263.4072 15.08830318103746,6917.91,95.438,540.785,538.765,0.0
49456.0,STARLINK-3124,PAYLOAD,2023-09-20 13:02:29,15.08835932,0.000148,53.2161,304.5738,99.9469,260.169,0.00043225,6.597e-05,0.0,0 STARLINK-3124,1 49456U 21104BA  23263.54339388  .00006597  00000-0  43225-3 0  9991,2 49456  53.2161 304.5738 0001480  99.9469 260.1690 15.08835932102738,6917.893,95.438,540.782,538.734,0.0
49456.0,STARLINK-3124,PAYLOAD,2023-09-20 14:37:52,15.08836563,0.0001492,53.216,304.2764,100.5356,259.5804,0.00050629,7.778e-05,0.0,0 STARLINK-3124,1 49456U 21104BA  23263.60963429  .00007778  00000-0  50629-3 0  9995,2 49456  53.2160 304.2764 0001492 100.5356 259.5804 15.08836563103810,6917.891,95.438,540.788,538.724,0.0
49456.0,STARLINK-3124,PAYLOAD,2023-09-21 01:45:34,15.08835043,0.0001464,53.216,302.1949,103.1135,257.0021,0.00085642,0.00013366,0.0,0 STARLINK-3124,1 49456U 21104BA  23264.07332062  .00013366  00000-0  85642-3 0  9993,2 49456  53.2160 302.1949 0001464 103.1135 257.0021 15.08835043103888,6917.896,95.438,540.773,538.748,0.0
49456.0,STARLINK-3124,PAYLOAD,2023-09-21 12:53:16,15.08844585,0.0001454,53.216,300.1131,102.8735,257.242,0.00077918,0.00012136,0.0,0 STARLINK-3124,1 49456U 21104BA  23264.53700080  .00012136  00000-0  77918-3 0  9994,2 49456  53.2160 300.1131 0001454 102.8735 257.2420 15.08844585102885,6917.866,95.437,540.737,538.726,0.0
49456.0,STARLINK-3124,PAYLOAD,2023-09-21 20:50:12,15.08840604,0.0001464,53.2158,298.6261,102.8891,257.2265,0.00043537,6.648e-05,0.0,0 STARLINK-3124,1 49456U 21104BA  23264.86820172  .00006648  00000-0  43537-3 0  9996,2 49456  53.2158 298.6261 0001464 102.8891 257.2265 15.08840604102932,6917.879,95.438,540.756,538.731,0.0
49456.0,STARLINK-3124,PAYLOAD,2023-09-22 03:11:45,15.08843063,0.0001461,53.2158,297.4367,102.445,257.6705,0.00041731,6.36e-05,0.0,0 STARLINK-3124,1 49456U 21104BA  23265.13316170  .00006360  00000-0  41731-3 0  9990,2 49456  53.2158 297.4367 0001461 102.4450 257.6705 15.08843063104049,6917.871,95.437,540.747,538.725,0.0
49456.0,STARLINK-3124,PAYLOAD,2023-09-22 12:44:03,15.08854252,0.0001429,53.2157,295.6528,97.7795,262.336,0.00058789,9.084e-05,0.0,0 STARLINK-3124,1 49456U 21104BA  23265.53059829  .00009084  00000-0  58789-3 0  9996,2 49456  53.2157 295.6528 0001429  97.7795 262.3360 15.08854252103039,6917.837,95.437,540.69,538.713,0.0
49456.0,STARLINK-3124,PAYLOAD,2023-09-22 20:40:59,15.08848054,0.000152,53.2155,294.1659,90.5119,269.6048,0.00033228,5.005e-05,0.0,0 STARLINK-3124,1 49456U 21104BA  23265.86179951  .00005005  00000-0  33228-3 0  9991,2 49456  53.2155 294.1659 0001520  90.5119 269.6048 15.08848054103080,6917.856,95.437,540.772,538.669,0.0
49456.0,STARLINK-3124,PAYLOAD,2023-09-23 03:02:32,15.08843816,0.0001426,53.2157,292.9764,96.3311,263.7844,0.00020855,3.033e-05,0.0,0 STARLINK-3124,1 49456U 21104BA  23266.12676054  .00003033  00000-0  20855-3 0  9998,2 49456  53.2157 292.9764 0001426  96.3311 263.7844 15.08843816104191,6917.869,95.437,540.72,538.747,0.0
49456.0,STARLINK-3124,PAYLOAD,2023-09-23 12:34:50,15.08852584,0.0001427,53.2156,291.1921,93.9587,266.1569,0.00030047,4.499e-05,0.0,0 STARLINK-3124,1 49456U 21104BA  23266.52419580  .00004499  00000-0  30047-3 0  9992,2 49456  53.2156 291.1921 0001427  93.9587 266.1569 15.08852584103186,6917.842,95.437,540.694,538.72,0.0
49456.0,STARLINK-3124,PAYLOAD,2023-09-24 01:17:56,15.08839012,0.0001413,53.2157,288.8132,90.8291,269.2863,1.0725e-05,-1.17e-06,0.0,0 STARLINK-3124,1 49456U 21104BA  23267.05412108 -.00000117  00000-0  10725-4 0  9996,2 49456  53.2157 288.8132 0001413  90.8291 269.2863 15.08839012104337,6917.883,95.438,540.726,538.771,0.0
49456.0,STARLINK-3124,PAYLOAD,2023-09-24 10:50:14,15.08848651,0.0001405,53.2163,287.0286,93.4152,266.7001,0.00011449,1.535e-05,0.0,0 STARLINK-3124,1 49456U 21104BA  23267.45155570  .00001535  00000-0  11449-3 0  9994,2 49456  53.2163 287.0286 0001405  93.4152 266.7001 15.08848651104392,6917.854,95.437,540.691,538.747,0.0
49456.0,STARLINK-3124,PAYLOAD,2023-09-24 12:25:37,15.08852433,0.0001399,53.2163,286.7311,95.3751,264.74,0.0001407,1.953e-05,0.0,0 STARLINK-3124,1 49456U 21104BA  23267.51779282  .00001953  00000-0  14070-3 0  9990,2 49456  53.2163 286.7311 0001399  95.3751 264.7400 15.08852433103332,6917.842,95.437,540.675,538.74,0.0
